{"type": "FeatureCollection", "features": [ {"type": "Feature", "properties": {"norad_id": 30447, "name": "FENGYUN 1C DEB", "group": "fengyun-1c-debris", "lat": 22.29725526144966, "lon": 28.421783378880672, "alt_km": 723.3229001658729, "timestamp": "2025-12-09T09:46:47.922183+00:00", "meta": {"OBJECT_NAME": "FENGYUN 1C DEB", "OBJECT_ID": "1999-025AFJ", "EPOCH": "2025-12-08T02:25:37.817760", "MEAN_MOTION": 14.56431832, "ECCENTRICITY": 0.00599923, "INCLINATION": 98.9711, "RA_OF_ASC_NODE": 203.3031, "ARG_OF_PERICENTER": 44.3165, "MEAN_ANOMALY": 106.7659, "EPHEMERIS_TYPE": 0, "CLASSIFICATION_TYPE": "U", "NORAD_CAT_ID": 30447, "ELEMENT_SET_NO": 999, "REV_AT_EPOCH": 98028, "BSTAR": 0.0030876019, "MEAN_MOTION_DOT": 0.00014023, "MEAN_MOTION_DDOT": 0}, "tle": {"line1": "1 30447U 99025AFJ 25342.10113215  .00014023  00000+0  30876-2 0  9998", "line2": "2 30447  98.9711 203.3031 0059992  44.3165 106.7659 14.56431832980282"}}, "geometry": {"type": "Point", "coordinates": [28.421783378880672, 22.29725526144966]}}, {"type": "Feature", "properties": {"norad_id": 30448, "name": "FENGYUN 1C DEB", "group": "fengyun-1c-debris", "lat": 44.697243383579845, "lon": -96.2234282229664, "alt_km": 775.4160564078302, "timestamp": "2025-12-09T09:46:47.922195+00:00", "meta": {"OBJECT_NAME": "FENGYUN 1C DEB", "OBJECT_ID": "1999-025AFK", "EPOCH": "2025-12-08T18:40:48.645984", "MEAN_MOTION": 14.3506852, "ECCENTRICITY": 0.00170845, "INCLINATION": 98.8311, "RA_OF_ASC_NODE": 74.2843, "ARG_OF_PERICENTER": 24.8771, "MEAN_ANOMALY": 100.9328, "EPHEMERIS_TYPE": 0, "CLASSIFICATION_TYPE": "U", "NORAD_CAT_ID": 30448, "ELEMENT_SET_NO": 999, "REV_AT_EPOCH": 97281, "BSTAR": 0.0030300355, "MEAN_MOTION_DOT": 8.619e-05, "MEAN_MOTION_DDOT": 0}, "tle": {"line1": "1 30448U 99025AFK 25342.77834081  .00008619  00000+0  30300-2 0  9999", "line2": "2 30448  98.8311  74.2843 0017084  24.8771 100.9328 14.35068520972812"}}, "geometry": {"type": "Point", "coordinates": [-96.2234282229664, 44.697243383579845]}}, {"type": "Feature", "properties": {"norad_id": 30450, "name": "FENGYUN 1C DEB", "group": "fengyun-1c-debris", "lat": -56.98944955116665, "lon": 10.145747284309456, "alt_km": 676.7392718046422, "timestamp": "2025-12-09T09:46:47.922206+00:00", "meta": {"OBJECT_NAME": "FENGYUN 1C DEB", "OBJECT_ID": "1999-025AFM", "EPOCH": "2025-12-07T23:41:15.816768", "MEAN_MOTION": 14.6172756, "ECCENTRICITY": 0.01889242, "INCLINATION": 98.0799, "RA_OF_ASC_NODE": 356.1263, "ARG_OF_PERICENTER": 223.2693, "MEAN_ANOMALY": 166.1514, "EPHEMERIS_TYPE": 0, "CLASSIFICATION_TYPE": "U", "NORAD_CAT_ID": 30450, "ELEMENT_SET_NO": 999, "REV_AT_EPOCH": 99473, "BSTAR": 0.00081764471, "MEAN_MOTION_DOT": 5.205e-05, "MEAN_MOTION_DDOT": 0}, "tle": {"line1": "1 30450U 99025AFM 25341.98698862  .00005205  00000+0  81764-3 0  9998", "line2": "2 30450  98.0799 356.1263 0188924 223.2693 166.1514 14.61727560994736"}}, "geometry": {"type": "Point", "coordinates": [10.145747284309456, -56.98944955116665]}}, {"type": "Feature", "properties": {"norad_id": 30452, "name": "FENGYUN 1C DEB", "group": "fengyun-1c-debris", "lat": 80.64542795291227, "lon": 36.14035047361304, "alt_km": 706.7780436426219, "timestamp": "2025-12-09T09:46:47.922217+00:00", "meta": {"OBJECT_NAME": "FENGYUN 1C DEB", "OBJECT_ID": "1999-025AFP", "EPOCH": "2025-12-08T22:27:44.072064", "MEAN_MOTION": 14.64290271, "ECCENTRICITY": 0.00499478, "INCLINATION": 99.3204, "RA_OF_ASC_NODE": 121.1259, "ARG_OF_PERICENTER": 263.4837, "MEAN_ANOMALY": 221.4052, "EPHEMERIS_TYPE": 0, "CLASSIFICATION_TYPE": "U", "NORAD_CAT_ID": 30452, "ELEMENT_SET_NO": 999, "REV_AT_EPOCH": 98051, "BSTAR": 0.0050127833, "MEAN_MOTION_DOT": 0.00026965, "MEAN_MOTION_DDOT": 0}, "tle": {"line1": "1 30452U 99025AFP 25342.93592676  .00026965  00000+0  50128-2 0  9997", "line2": "2 30452  99.3204 121.1259 0049947 263.4837 221.4052 14.64290271980515"}}, "geometry": {"type": "Point", "coordinates": [36.14035047361304, 80.64542795291227]}}, {"type": "Feature", "properties": {"norad_id": 30453, "name": "FENGYUN 1C DEB", "group": "fengyun-1c-debris", "lat": -81.10691606976756, "lon": 152.59369541427841, "alt_km": 746.8118428005073, "timestamp": "2025-12-09T09:46:47.922228+00:00", "meta": {"OBJECT_NAME": "FENGYUN 1C DEB", "OBJECT_ID": "1999-025AFQ", "EPOCH": "2025-12-08T21:02:09.828096", "MEAN_MOTION": 14.24709562, "ECCENTRICITY": 0.01155222, "INCLINATION": 98.813, "RA_OF_ASC_NODE": 54.5783, "ARG_OF_PERICENTER": 237.4285, "MEAN_ANOMALY": 188.7759, "EPHEMERIS_TYPE": 0, "CLASSIFICATION_TYPE": "U", "NORAD_CAT_ID": 30453, "ELEMENT_SET_NO": 999, "REV_AT_EPOCH": 97179, "BSTAR": 0.0019834518, "MEAN_MOTION_DOT": 4.906e-05, "MEAN_MOTION_DDOT": 0}, "tle": {"line1": "1 30453U 99025AFQ 25342.87650264  .00004906  00000+0  19835-2 0  9990", "line2": "2 30453  98.8130  54.5783 0115522 237.4285 188.7759 14.24709562971793"}}, "geometry": {"type": "Point", "coordinates": [152.59369541427841, -81.10691606976756]}}, {"type": "Feature", "properties": {"norad_id": 30454, "name": "FENGYUN 1C DEB", "group": "fengyun-1c-debris", "lat": 20.993779294212956, "lon": -49.21281874268253, "alt_km": 964.3776488334379, "timestamp": "2025-12-09T09:46:47.922239+00:00", "meta": {"OBJECT_NAME": "FENGYUN 1C DEB", "OBJECT_ID": "1999-025AFR", "EPOCH": "2025-12-08T20:24:44.716320", "MEAN_MOTION": 14.15338238, "ECCENTRICITY": 0.01712535, "INCLINATION": 98.1351, "RA_OF_ASC_NODE": 313.4251, "ARG_OF_PERICENTER": 206.6037, "MEAN_ANOMALY": 218.2607, "EPHEMERIS_TYPE": 0, "CLASSIFICATION_TYPE": "U", "NORAD_CAT_ID": 30454, "ELEMENT_SET_NO": 999, "REV_AT_EPOCH": 95905, "BSTAR": 0.0030693504, "MEAN_MOTION_DOT": 6.857e-05, "MEAN_MOTION_DDOT": 0}, "tle": {"line1": "1 30454U 99025AFR 25342.85051755  .00006857  00000+0  30694-2 0  9992", "line2": "2 30454  98.1351 313.4251 0171253 206.6037 218.2607 14.15338238959059"}}, "geometry": {"type": "Point", "coordinates": [-49.21281874268253, 20.993779294212956]}}, {"type": "Feature", "properties": {"norad_id": 30462, "name": "FENGYUN 1C DEB", "group": "fengyun-1c-debris", "lat": -49.21970401445658, "lon": 141.37227377460349, "alt_km": 791.2812386608166, "timestamp": "2025-12-09T09:46:47.922250+00:00", "meta": {"OBJECT_NAME": "FENGYUN 1C DEB", "OBJECT_ID": "1999-025AFZ", "EPOCH": "2025-12-08T22:42:13.824576", "MEAN_MOTION": 14.06259999, "ECCENTRICITY": 0.01387673, "INCLINATION": 98.8163, "RA_OF_ASC_NODE": 331.288, "ARG_OF_PERICENTER": 260.9487, "MEAN_ANOMALY": 154.6785, "EPHEMERIS_TYPE": 0, "CLASSIFICATION_TYPE": "U", "NORAD_CAT_ID": 30462, "ELEMENT_SET_NO": 999, "REV_AT_EPOCH": 96740, "BSTAR": 0.00023046919, "MEAN_MOTION_DOT": 3.7e-06, "MEAN_MOTION_DDOT": 0}, "tle": {"line1": "1 30462U 99025AFZ 25342.94599334  .00000370  00000+0  23047-3 0  9990", "line2": "2 30462  98.8163 331.2880 0138767 260.9487 154.6785 14.06259999967401"}}, "geometry": {"type": "Point", "coordinates": [141.37227377460349, -49.21970401445658]}}, {"type": "Feature", "properties": {"norad_id": 30464, "name": "FENGYUN 1C DEB", "group": "fengyun-1c-debris", "lat": -53.455325496261985, "lon": -158.34916522137019, "alt_km": 800.1024225687861, "timestamp": "2025-12-09T09:46:47.922261+00:00", "meta": {"OBJECT_NAME": "FENGYUN 1C DEB", "OBJECT_ID": "1999-025AGB", "EPOCH": "2025-12-08T16:13:47.752896", "MEAN_MOTION": 14.10243629, "ECCENTRICITY": 0.01082369, "INCLINATION": 98.8379, "RA_OF_ASC_NODE": 33.0497, "ARG_OF_PERICENTER": 270.1558, "MEAN_ANOMALY": 214.439, "EPHEMERIS_TYPE": 0, "CLASSIFICATION_TYPE": "U", "NORAD_CAT_ID": 30464, "ELEMENT_SET_NO": 999, "REV_AT_EPOCH": 97006, "BSTAR": 0.0002051217, "MEAN_MOTION_DOT": 3.39e-06, "MEAN_MOTION_DDOT": 0}, "tle": {"line1": "1 30464U 99025AGB 25342.67624714  .00000339  00000+0  20512-3 0  9992", "line2": "2 30464  98.8379  33.0497 0108236 270.1558 214.4390 14.10243629970064"}}, "geometry": {"type": "Point", "coordinates": [-158.34916522137019, -53.455325496261985]}}, {"type": "Feature", "properties": {"norad_id": 30465, "name": "FENGYUN 1C DEB", "group": "fengyun-1c-debris", "lat": 21.505133109200894, "lon": -104.93481062093308, "alt_km": 784.0416355464258, "timestamp": "2025-12-09T09:46:47.922271+00:00", "meta": {"OBJECT_NAME": "FENGYUN 1C DEB", "OBJECT_ID": "1999-025AGC", "EPOCH": "2025-12-08T17:00:54.584640", "MEAN_MOTION": 14.33815577, "ECCENTRICITY": 0.00169018, "INCLINATION": 98.8295, "RA_OF_ASC_NODE": 70.8413, "ARG_OF_PERICENTER": 44.1037, "MEAN_ANOMALY": 110.2285, "EPHEMERIS_TYPE": 0, "CLASSIFICATION_TYPE": "U", "NORAD_CAT_ID": 30465, "ELEMENT_SET_NO": 999, "REV_AT_EPOCH": 97300, "BSTAR": 0.0029008002, "MEAN_MOTION_DOT": 8.044e-05, "MEAN_MOTION_DDOT": 0}, "tle": {"line1": "1 30465U 99025AGC 25342.70896510  .00008044  00000+0  29008-2 0  9991", "line2": "2 30465  98.8295  70.8413 0016901  44.1037 110.2285 14.33815577973002"}}, "geometry": {"type": "Point", "coordinates": [-104.93481062093308, 21.505133109200894]}}, {"type": "Feature", "properties": {"norad_id": 30466, "name": "FENGYUN 1C DEB", "group": "fengyun-1c-debris", "lat": -54.15999679629858, "lon": -168.6827725059895, "alt_km": 902.1695049698856, "timestamp": "2025-12-09T09:46:47.922282+00:00", "meta": {"OBJECT_NAME": "FENGYUN 1C DEB", "OBJECT_ID": "1999-025AGD", "EPOCH": "2025-12-08T16:23:37.240224", "MEAN_MOTION": 14.22499236, "ECCENTRICITY": 0.01167646, "INCLINATION": 98.655, "RA_OF_ASC_NODE": 22.7796, "ARG_OF_PERICENTER": 36.0801, "MEAN_ANOMALY": 91.7072, "EPHEMERIS_TYPE": 0, "CLASSIFICATION_TYPE": "U", "NORAD_CAT_ID": 30466, "ELEMENT_SET_NO": 999, "REV_AT_EPOCH": 97293, "BSTAR": 0.0019417817, "MEAN_MOTION_DOT": 4.604e-05, "MEAN_MOTION_DDOT": 0}, "tle": {"line1": "1 30466U 99025AGD 25342.68306991  .00004604  00000+0  19418-2 0  9990", "line2": "2 30466  98.6550  22.7796 0116764  36.0801  91.7072 14.22499236972938"}}, "geometry": {"type": "Point", "coordinates": [-168.6827725059895, -54.15999679629858]}}]}